MEAN_MOTION;ECCENTRICITY;INCLINATION;RA_OF_ASC_NODE;ARG_OF_PERICENTER;MEAN_ANOMALY;BSTAR;MEAN_MOTION_DOT;MEAN_MOTION_DDOT;TYPE
12.43358277;0.0006076;51.9867;335.2824;270.5563;167.957;0.00016087;-7.6E-7;0;Globalstar
12.43358204;0.0006092;51.9866;334.2883;271.4012;241.3863;0.00011442;-8.2E-7;0;Globalstar
12.43358152;0.0006051;51.9865;332.2067;272.914;170.3868;7.4051E-5;-8.8E-7;0;Globalstar
12.43358125;0.0006054;51.9865;329.3718;275.1032;165.6006;2.009E-5;-9.5E-7;0;Globalstar
12.43358109;0.0006045;51.9864;327.2943;276.7483;88.2642;1.5988E-5;-9.6E-7;0;Globalstar
12.4335813;0.0006044;51.9864;326.5178;277.3809;190.4482;2.6435E-5;-9.4E-7;0;Globalstar
12.43358125;0.0006039;51.9863;325.7779;277.978;236.8675;3.1787E-5;-9.4E-7;0;Globalstar
12.43358149;0.0006034;51.9862;323.9612;279.4104;122.6295;4.7489E-5;-9.2E-7;0;Globalstar
12.43358227;0.0006011;51.9858;321.1279;281.7393;116.0682;0.00017834;-7.3E-7;0;Globalstar
12.43358443;0.0006003;51.9855;317.7917;284.2929;154.8828;0.00030578;-5.5E-7;0;Globalstar
12.4335854;0.0006012;51.9853;314.9569;286.5866;150.5118;0.00029287;-5.7E-7;0;Globalstar
12.43358587;0.0006003;51.9852;313.75;287.5383;187.8904;0.00029196;-5.7E-7;0;Globalstar
12.43358621;0.0006008;51.985;311.6129;289.0393;201.4893;0.00026393;-6.1E-7;0;Globalstar
12.43358551;0.0006006;51.9849;309.7859;290.4757;102.7673;0.0001389;-7.9E-7;0;Globalstar
12.43358581;0.0006004;51.9849;309.0341;291.0144;167.3953;0.00014271;-7.8E-7;0;Globalstar
12.43358556;0.0006005;51.9847;305.9494;293.4321;183.2701;4.8317E-5;-9.1E-7;0;Globalstar
12.43358558;0.0006004;51.9847;305.719;293.6205;174.0103;4.9661E-5;-9.1E-7;0;Globalstar
12.43358474;0.0006016;51.9849;302.8667;295.6656;195.9377;-6.1897E-5;-1.07E-6;0;Globalstar
12.43358471;0.0006015;51.9849;302.4157;296.0197;162.4277;-6.9572E-5;-1.08E-6;0;Globalstar
12.43358449;0.0006016;51.9848;301.038;297.0625;99.8347;-8.4095E-5;-1.1E-6;0;Globalstar
12.43358419;0.0006006;51.9848;299.7838;297.9577;209.1311;-9.377E-5;-1.11E-6;0;Globalstar
12.43358405;0.0006003;51.9847;299.0923;298.4586;181.8971;-0.00010281;-1.13E-6;0;Globalstar
12.43358394;0.0006002;51.9847;297.955;299.2979;113.2027;-0.00010862;-1.13E-6;0;Globalstar
12.43358364;0.0005991;51.9847;296.9966;299.9539;132.3577;-0.00012753;-1.16E-6;0;Globalstar
12.43358355;0.000599;51.9846;295.1299;301.3305;94.0392;-0.00011356;-1.14E-6;0;Globalstar
12.43358321;0.0005979;51.9846;293.9188;302.2059;137.9215;-0.00013584;-1.17E-6;0;Globalstar
12.43358388;0.0005981;51.9845;291.3046;304.1612;157.5266;-3.9164E-5;-1.04E-6;0;Globalstar
12.43358578;0.0005972;51.9839;288.2403;306.8255;142.1341;0.00025368;-6.3E-7;0;Globalstar
12.43358581;0.0005972;51.9839;287.9851;307.0211;170.6442;0.00024597;-6.4E-7;0;Globalstar
12.43358675;0.0005971;51.9838;285.3936;308.9113;155.7319;0.00026616;-6.1E-7;0;Globalstar
12.43358705;0.0005972;51.9838;284.8733;309.3427;227.598;0.00029339;-5.7E-7;0;Globalstar
12.43358705;0.0005972;51.9838;284.8733;309.3427;227.598;0.00029339;-5.7E-7;0;Globalstar
12.43358794;0.0005982;51.9838;282.2897;311.3444;200.599;0.0002925;-5.7E-7;0;Globalstar
12.43358794;0.0005989;51.9837;282.0438;311.5967;214.8889;0.00028765;-5.8E-7;0;Globalstar
12.43358869;0.0006001;51.9837;277.6509;314.8155;62.284;0.00017031;-7.4E-7;0;Globalstar
12.43358892;0.0006;51.9837;276.647;315.5441;150.5505;0.00015151;-7.7E-7;0;Globalstar
12.43358938;0.000602;51.9837;274.3044;317.3772;116.6743;0.00010831;-8.3E-7;0;Globalstar
12.4335896;0.0006016;51.9836;273.8137;317.7127;143.6493;0.00012235;-8.1E-7;0;Globalstar
12.43358979;0.0006034;51.9836;271.4976;319.5744;69.2986;9.7543E-5;-8.5E-7;0;Globalstar
12.43358997;0.000603;51.9835;270.747;320.0554;132.0186;0.00011075;-8.3E-7;0;Globalstar
12.43358937;0.0006052;51.9835;267.66;322.4088;151.3931;4.7599E-5;-9.2E-7;0;Globalstar
12.43358934;0.0006051;51.9835;267.4045;322.5708;180.4391;3.7817E-5;-9.3E-7;0;Globalstar
12.43358899;0.0006062;51.9835;265.0675;324.3712;138.0822;2.8181E-5;-9.4E-7;0;Globalstar
12.43358807;0.0006078;51.9835;262.9838;326.0047;70.0321;-1.6214E-5;-1.0E-6;0;Globalstar
12.43358823;0.0006091;51.984;262.1442;326.4021;268.6451;-4.1706E-5;-1.04E-6;0;Globalstar
12.43358773;0.0006091;51.984;260.1512;327.893;62.5946;-8.0284E-5;-1.09E-6;0;Globalstar
12.43358715;0.0006097;51.984;257.3186;329.748;54.9174;-0.00012023;-1.15E-6;0;Globalstar
12.43358678;0.00061;51.984;256.3214;330.4174;133.1741;-0.00014484;-1.18E-6;0;Globalstar
12.43358651;0.0006115;51.984;254.2395;331.9881;62.5132;-0.00015379;-1.2E-6;0;Globalstar
12.43358651;0.0006121;51.984;253.4871;332.6506;127.8373;-0.00014411;-1.18E-6;0;Globalstar
12.43358774;0.0006124;51.984;251.1687;333.9888;57.5277;-6.4554E-5;-1.07E-6;0;Globalstar
12.43358876;0.0006119;51.9838;249.9068;335.1126;178.0597;6.8764E-5;-8.9E-7;0;Globalstar
12.43358985;0.0006121;51.9839;248.066;336.2528;100.4549;0.00010328;-8.4E-7;0;Globalstar
12.43359063;0.0006129;51.9839;247.0785;337.0096;163.9406;0.00015373;-7.7E-7;0;Globalstar
12.43359071;0.0006146;51.9839;244.7413;338.7023;122.1039;9.7385E-5;-8.5E-7;0;Globalstar
12.43359131;0.000616;51.9839;241.3949;341.0088;176.8868;7.3274E-5;-8.8E-7;0;Globalstar
12.43359214;0.0006172;51.984;238.3321;343.2487;159.6379;7.702E-5;-8.7E-7;0;Globalstar
12.43359161;0.0006182;51.984;235.9955;344.9791;116.9384;1.4279E-5;-9.6E-7;0;Globalstar
12.43359083;0.000621;51.984;233.4098;346.8816;93.3675;-3.9646E-5;-1.04E-6;0;Globalstar
12.43359059;0.0006217;51.984;232.4192;347.5379;161.5639;-4.0751E-5;-1.04E-6;0;Globalstar
12.4335903;0.0006234;51.984;229.5816;349.4659;161.7499;-5.1078E-6;-9.9E-7;0;Globalstar
12.43359052;0.0006248;51.9844;226.5044;351.4456;167.0337;-4.257E-5;-1.04E-6;0;Globalstar
12.43359052;0.0006248;51.9844;226.5044;351.4456;167.0337;-4.257E-5;-1.04E-6;0;Globalstar
12.43359044;0.0006256;51.9844;224.4149;352.8173;108.3273;-5.7118E-5;-1.06E-6;0;Globalstar
12.43359045;0.0006268;51.9844;222.5867;354.0225;11.7156;-4.9913E-5;-1.05E-6;0;Globalstar
12.43359063;0.000627;51.9844;221.8299;354.5471;83.8891;-3.4458E-5;-1.03E-6;0;Globalstar
12.43359102;0.000629;51.9841;218.995;356.6045;79.4731;0.00012001;-8.1E-7;0;Globalstar
12.43359197;0.0006311;51.9841;215.6703;359.0029;101.3183;0.00014732;-7.8E-7;0;Globalstar
12.43359197;0.0006311;51.9841;215.6703;359.0029;101.3183;0.00014732;-7.8E-7;0;Globalstar
12.43359229;0.000633;51.9841;212.0919;1.3994;149.5374;9.5187E-5;-8.5E-7;0;Globalstar
12.43359086;0.0006342;51.9843;209.2619;3.3074;138.0794;-6.7001E-6;-9.9E-7;0;Globalstar
12.43359064;0.0006345;51.9842;207.9232;4.173;16.2594;-2.6942E-5;-1.02E-6;0;Globalstar
12.43359031;0.0006356;51.9842;206.4286;5.2159;131.7837;-5.5452E-5;-1.06E-6;0;Globalstar
12.43359079;0.0006366;51.9842;204.1104;6.7619;61.1356;-1.2935E-5;-1.0E-6;0;Globalstar
12.43359117;0.0006368;51.9841;203.3485;7.3596;141.0628;2.2241E-5;-9.5E-7;0;Globalstar
12.43359134;0.0006378;51.9837;201.012;8.9651;98.7241;-5.2015E-6;-9.9E-7;0;Globalstar
12.4335923;0.0006401;51.9836;198.1794;10.9866;91.2093;0.00013948;-7.9E-7;0;Globalstar
12.43359297;0.0006417;51.9835;196.3464;12.2429;1.8453;0.00023489;-6.5E-7;0;Globalstar
12.43359285;0.0006421;51.9834;195.3423;12.9695;90.585;0.00022828;-6.6E-7;0;Globalstar
12.43359303;0.0006436;51.9833;193.2713;14.373;3.514;0.00024796;-6.4E-7;0;Globalstar
12.43359291;0.0006442;51.9833;192.2805;15.1208;71.9073;0.00023604;-6.5E-7;0;Globalstar
12.4335934;0.0006459;51.9832;189.4335;17.0809;86.3031;0.00026415;-6.1E-7;0;Globalstar
12.43359326;0.0006465;51.9832;189.1942;17.2092;90.7611;0.00024876;-6.3E-7;0;Globalstar
12.4335933;0.0006467;51.9832;188.9371;17.3791;122.2257;0.000251;-6.3E-7;0;Globalstar
12.43359298;0.0006486;51.9831;185.8559;19.3868;133.2862;0.00019583;-7.1E-7;0;Globalstar
12.43359094;0.0006498;51.9834;183.0203;21.2177;130.0901;-0.0001524;-1.19E-6;0;Globalstar
12.43359125;0.0006509;51.9833;181.417;22.307;50.9464;-9.8231E-5;-1.12E-6;0;Globalstar
12.43359087;0.0006504;51.9832;180.4228;22.9931;124.2879;-0.0001009;-1.12E-6;0;Globalstar
12.43358984;0.0006512;51.9832;177.6206;24.6212;70.7454;-0.00012191;-1.15E-6;0;Globalstar
12.43358911;0.0006538;51.983;174.2762;26.7606;122.4934;-0.0001083;-1.13E-6;0;Globalstar
12.4335902;0.000656;51.9829;171.4449;28.7885;113.0222;5.4554E-5;-9.1E-7;0;Globalstar
12.43359048;0.0006567;51.9829;170.1083;29.6645;347.93;7.3507E-5;-8.8E-7;0;Globalstar
12.4335921;0.0006582;51.9822;168.6118;30.6518;106.8691;0.00012641;-8.1E-7;0;Globalstar
12.43359215;0.0006583;51.9822;168.3631;30.8235;125.432;0.00012258;-8.1E-7;0;Globalstar
12.4335923;0.000659;51.9821;167.0363;31.6686;345.4055;0.00013172;-8.0E-7;0;Globalstar
12.4335927;0.0006605;51.9821;165.7771;32.5639;102.4596;0.00015956;-7.6E-7;0;Globalstar
12.43359275;0.0006606;51.9821;165.5308;32.7255;117.3031;0.00015956;-7.6E-7;0;Globalstar
12.43359314;0.0006615;51.982;163.9556;33.7386;355.4977;0.00018106;-7.3E-7;0;Globalstar
12.43359364;0.0006629;51.982;162.6927;34.6496;118.1247;0.00020953;-6.9E-7;0;Globalstar
12.43359393;0.0006639;51.9819;160.8527;35.8845;39.3054;0.00021805;-6.8E-7;0;Globalstar
12.43359445;0.0006649;51.9819;159.8656;36.5619;101.918;0.00027021;-6.0E-7;0;Globalstar
12.43359456;0.0006664;51.9819;157.295;38.283;55.3918;0.00027086;-6.0E-7;0;Globalstar
12.43359452;0.0006668;51.9819;156.784;38.6287;113.3461;0.00025081;-6.3E-7;0;Globalstar
12.43359469;0.0006682;51.982;153.9469;40.5367;112.5531;0.00022985;-6.6E-7;0;Globalstar
12.43359492;0.0006696;51.982;151.1193;42.4556;97.2435;0.00018874;-7.2E-7;0;Globalstar
12.43359508;0.0006703;51.982;149.0305;43.8855;37.1497;0.00014058;-7.9E-7;0;Globalstar
12.43359521;0.000671;51.982;148.0378;44.5224;108.4942;0.00013495;-7.9E-7;0;Globalstar
12.43359545;0.0006721;51.982;145.4603;46.2529;72.4457;8.6293E-5;-8.6E-7;0;Globalstar
12.43359549;0.0006722;51.982;145.2033;46.4222;103.6886;7.7459E-5;-8.7E-7;0;Globalstar
12.43359584;0.0006739;51.9821;142.3729;48.2916;92.6968;2.5275E-5;-9.5E-7;0;Globalstar
12.43359607;0.000676;51.9821;139.5397;50.1828;85.9164;-1.201E-6;-9.8E-7;0;Globalstar
12.43359609;0.000678;51.9821;137.4494;51.5673;28.0391;-2.629E-5;-1.02E-6;0;Globalstar
